ONEWEB-0387             
1 49313U 21090AL  23135.51621479  .00000108  00000+0  23377-3 0  9994
2 49313  87.9243 139.1628 0001801  91.4066 268.7273 13.20767938 80831
ONEWEB-0388             
1 49314U 21090AM  23135.49476489  .00000061  00000+0  11914-3 0  9993
2 49314  87.9273 169.4774 0002177  95.8550 264.2831 13.19725516 77545
ONEWEB-0389             
1 50469U 21132A   23135.55885916  .00000099  00000+0  22167-3 0  9992
2 50469  87.9185 230.0400 0001508 112.1004 248.0288 13.17648748 69451
ONEWEB-0390             
1 50470U 21132B   23135.56110431  .00000084  00000+0  18360-3 0  9992
2 50470  87.9187 230.0441 0001623  97.5924 262.5392 13.17648484 69459
ONEWEB-0391             
1 50471U 21132C   23135.56333413  .00000037  00000+0  61246-4 0  9990
2 50471  87.9187 230.0148 0001747 107.1626 252.9697 13.17650430 69453
ONEWEB-0392             
1 50472U 21132D   23135.51643020  .00000093  00000+0  20643-3 0  9991
2 50472  87.9191 230.0590 0001694 101.8508 258.2813 13.17649332 69482
ONEWEB-0393             
1 50473U 21132E   23135.52647173  .00000101  00000+0  22707-3 0  9999
2 50473  87.9183 230.0319 0001806  96.1570 263.9767 13.17646543 69474
ONEWEB-0394             
1 50474U 21132F   23135.43489061  .00000050  00000+0  95005-4 0  9995
2 50474  87.9270 199.7695 0002033 103.6423 256.4936 13.18685915 72830
ONEWEB-0395             
1 50475U 21132G   23135.35537337 -.00000076  00000+0 -25025-3 0  9991
2 50475  87.8903 245.3166 0001671  99.0124 261.1193 13.11419802 67764
ONEWEB-0396             
1 50476U 21132H   23135.42856259 -.00000009  00000+0 -54425-4 0  9990
2 50476  87.9269 199.7634 0002075 107.3909 252.7450 13.18686113 72874
ONEWEB-0397             
1 50477U 21132J   23135.44331939  .00000053  00000+0  10173-3 0  9994
2 50477  87.9202 199.7731 0002060 108.0371 252.0986 13.18686252 72854
ONEWEB-0398             
1 50478U 21132K   23135.55248914 -.00000290  00000+0 -85436-3 0  9996
2 50478  87.8903 245.2700 0001478  90.1103 270.0194 13.11410799 67681
ONEWEB-0399             
1 50479U 21132L   23135.53976289  .00000230  00000+0  61243-3 0  9990
2 50479  87.8902 245.2848 0002205 108.8252 251.3115 13.11415589 67671
ONEWEB-0400             
1 50480U 21132M   23135.42222332  .00000083  00000+0  17748-3 0  9990
2 50480  87.9276 199.8107 0002013  92.6721 267.4642 13.18684381 72841
ONEWEB-0401             
1 50481U 21132N   23135.54025835  .00000088  00000+0  18944-3 0  9997
2 50481  87.9268 199.7499 0002481 107.4335 252.7068 13.18684892 74142
ONEWEB-0402             
1 50482U 21132P   23135.43066815 -.00000081  00000+0 -23870-3 0  9998
2 50482  87.9275 199.8102 0002833 100.9158 259.2293 13.18685774 72875
ONEWEB-0403             
1 50483U 21132Q   23135.45384073 -.00004240  00000+0 -10790-1 0  9996
2 50483  87.9236 199.7976 0002869 100.0875 260.0581 13.18706551 72830
ONEWEB-0404             
1 50484U 21132R   23135.59698794  .00000660  00000+0  18275-2 0  9997
2 50484  87.8901 245.2310 0001723 125.1415 234.9874 13.11418760 69043
ONEWEB-0405             
1 50485U 21132S   23135.42118562  .00000019  00000+0  16726-4 0  9999
2 50485  87.9270 199.7719 0002584 109.0524 251.0888 13.18683399 73227
ONEWEB-0406             
1 50486U 21132T   23135.53394575  .00000049  00000+0  92840-4 0  9996
2 50486  87.9269 199.7523 0001815 113.2910 246.8413 13.18686590 72873
ONEWEB-0407             
1 50487U 21132U   23135.45174693  .00000090  00000+0  19605-3 0  9998
2 50487  87.9180 199.7917 0002246 104.8639 255.2742 13.18685875 72803
ONEWEB-0409             
1 50488U 21132V   23135.59487614  .00000553  00000+0  15235-2 0  9992
2 50488  87.8913 245.2393 0001312 113.4280 246.6986 13.11417525 68945
ONEWEB-0412             
1 50489U 21132W   23135.21357439  .00000105  00000+0  23319-3 0  9999
2 50489  87.9272 199.8486 0002705 110.7194 249.4228 13.18686126 72861
ONEWEB-0413             
1 50490U 21132X   23135.59717801  .00000042  00000+0  73312-4 0  9994
2 50490  87.9185 199.7807 0002554 105.0726 255.0688 13.18686467 74146
ONEWEB-0414             
1 50491U 21132Y   23135.43172200  .00000061  00000+0  12166-3 0  9996
2 50491  87.9184 199.8429 0002265 110.9798 249.1576 13.18684926 72865
ONEWEB-0417             
1 50492U 21132Z   23135.59083648  .00000061  00000+0  12195-3 0  9993
2 50492  87.9274 199.7858 0001777 104.4939 255.6390 13.18687185 74153
ONEWEB-0418             
1 50493U 21132AA  23135.45280026  .00000050  00000+0  93975-4 0  9992
2 50493  87.9273 199.7600 0001576 111.3915 248.7385 13.18689442 72902
ONEWEB-0419             
1 50494U 21132AB  23135.46646978  .00000040  00000+0  69297-4 0  9995
2 50494  87.9279 199.7777 0001759  91.0229 269.1105 13.18687950 72829
ONEWEB-0420             
1 50495U 21132AC  23135.58452253  .00000005  00000+0 -21307-4 0  9992
2 50495  87.9275 199.7654 0002370  90.8054 269.3349 13.18687682 74133
ONEWEB-0421             
1 50496U 21132AD  23135.42645550  .00000086  00000+0  18445-3 0  9996
2 50496  87.9275 199.8040 0002506 110.4560 249.6841 13.18687313 72852
ONEWEB-0424             
1 50497U 21132AE  23135.53817010 -.00000063  00000+0 -19213-3 0  9992
2 50497  87.9274 199.7876 0001870  86.3089 273.8257 13.18684660 72894
ONEWEB-0426             
1 50498U 21132AF  23135.42434001  .00000046  00000+0  83915-4 0  9996
2 50498  87.9273 199.7921 0002147 115.1977 244.9378 13.18688017 72826
ONEWEB-0427             
1 50499U 21132AG  23135.53604668 -.00000015  00000+0 -69791-4 0  9991
2 50499  87.9277 199.7884 0001772 104.5789 255.5540 13.18687196 72865
ONEWEB-0429             
1 50500U 21132AH  23135.44752015  .00000038  00000+0  62696-4 0  9994
2 50500  87.9256 199.7897 0002089  97.9925 262.1444 13.18689231 72823
ONEWEB-0430             
1 50501U 21132AJ  23135.20934917  .00000075  00000+0  15743-3 0  9993
2 50501  87.9232 199.8542 0002019  90.5650 269.5714 13.18689134 72837
ONEWEB-0432             
1 50502U 21132AK  23135.54448734  .00000042  00000+0  74636-4 0  9999
2 50502  87.9274 199.7865 0002151  97.8418 262.2958 13.18684741 74134
ONEWEB-0440             
1 50503U 21132AL  23135.45595197  .00000062  00000+0  12358-3 0  9990
2 50503  87.9278 199.8133 0002745 109.5801 250.5627 13.18684271 72818
ONEWEB-0450             
1 50504U 21132AM  23135.60138384  .00000021  00000+0  19975-4 0  9997
2 50504  87.9278 199.7895 0002592  92.4708 267.6721 13.18683410 74156
ONEWEB-0410             
1 51622U 22012A   23135.50079041  .00000097  00000+0  21590-3 0  9998
2 51622  87.9182 230.1118 0001693 144.2787 215.8458 13.17650521 65062
ONEWEB-0411             
1 51623U 22012B   23135.60279073 -.00000561  00000+0 -16430-2 0  9991
2 51623  87.8776 260.4247 0001372 100.6376 259.4906 13.10372696 62767
ONEWEB-0415             
1 51624U 22012C   23135.37059804 -.00000613  00000+0 -17912-2 0  9998
2 51624  87.8818 260.4849 0001665  85.2609 274.8708 13.10368947 61455
ONEWEB-0416             
1 51625U 22012D   23135.38150910 -.00000468  00000+0 -13766-2 0  9991
2 51625  87.8819 260.4715 0002045  97.0137 263.1223 13.10372252 61490
ONEWEB-0422             
1 51626U 22012E   23135.50972273  .00000104  00000+0  23531-3 0  9997
2 51626  87.9178 230.1099 0002966  99.0818 261.0649 13.17651388 65174
ONEWEB-0423             
1 51627U 22012F   23135.50303197  .00000076  00000+0  16250-3 0  9999
2 51627  87.9180 230.0435 0001923 105.6297 254.5047 13.17650827 65062
ONEWEB-0425             
1 51628U 22012G   23135.61992585 -.00000049  00000+0 -17669-3 0  9994
2 51628  87.8818 260.4205 0002149 117.9742 242.1603 13.10378517 62811
ONEWEB-0428             
1 51629U 22012H   23135.37215728 -.00000587  00000+0 -17179-2 0  9997
2 51629  87.8815 260.4793 0002362  95.3877 264.7520 13.10375185 61451
ONEWEB-0431             
1 51630U 22012J   23135.40023196  .00000405  00000+0  11227-2 0  9994
2 51630  87.8806 260.4677 0001937  75.3667 284.7675 13.10378386 61512
ONEWEB-0434             
1 51631U 22012K   23135.39397163 -.00000407  00000+0 -12013-2 0  9999
2 51631  87.8825 260.4841 0002303  96.8605 263.2784 13.10374577 61493
ONEWEB-0435             
1 51632U 22012L   23135.40335362  .00000523  00000+0  14629-2 0  9997
2 51632  87.8819 260.4733 0002526  90.4753 269.6664 13.10374616 61488
ONEWEB-0436             
1 51633U 22012M   23135.49856828  .00000058  00000+0  11591-3 0  9991
2 51633  87.9181 230.1063 0002340  99.9020 260.2375 13.17650368 65047
ONEWEB-0438             
1 51634U 22012N   23135.38619267 -.00000277  00000+0 -83074-3 0  9994
2 51634  87.8818 260.4769 0001931 109.7811 250.3525 13.10375266 61515
ONEWEB-0439             
1 51635U 22012P   23135.61836628 -.00000596  00000+0 -17426-2 0  9994
2 51635  87.8798 260.4179 0002073  97.6388 262.4975 13.10374845 62808
ONEWEB-0442             
1 51636U 22012Q   23135.48962551  .00000099  00000+0  22096-3 0  9991
2 51636  87.9180 230.0902 0001238 123.0587 237.0663 13.17648922 65036
ONEWEB-0443             
1 51637U 22012R   23135.50750183  .00000087  00000+0  19060-3 0  9995
2 51637  87.9179 230.0925 0002770 103.9078 256.2361 13.17650072 65086
ONEWEB-0444             
1 51638U 22012S   23135.37996521 -.00000495  00000+0 -14539-2 0  9999
2 51638  87.8820 260.4857 0002245  98.2021 261.9361 13.10373541 61503
ONEWEB-0445             
1 51639U 22012T   23135.40178544  .00000485  00000+0  13516-2 0  9992
2 51639  87.8802 260.4829 0001379 103.6576 256.4705 13.10379030 61517
ONEWEB-0446             
1 51640U 22012U   23135.60746166 -.00000461  00000+0 -13568-2 0  9990
2 51640  87.8818 260.4352 0001769  93.7681 266.3649 13.10371529 62823
ONEWEB-0448             
1 51641U 22012V   23135.38307211 -.00000394  00000+0 -11657-2 0  9992
2 51641  87.8820 260.4821 0002249 100.8577 259.2803 13.10375347 61460
ONEWEB-0449             
1 51642U 22012W   23135.38775535 -.00000211  00000+0 -64082-3 0  9990
2 51642  87.8822 260.4809 0001866 108.2683 251.8648 13.10377121 61471
